NOAA 15
1 25338U 98030A   20283.73581878  .00000015  00000-0  24959-4 0  9992
2 25338  98.7101 308.1656 0009370 292.6231  67.3958 14.25992907165268
DMSP 5D-3 F15 (USA 147)
1 25991U 99067A   20283.74536059 -.00000065  00000-0 -96401-5 0  9999
2 25991  98.9840 256.0569 0010481 132.0132 354.7318 14.16470088 76604
METEOSAT-8 (MSG-1)
1 27509U 02040B   20283.55432939  .00000141  00000-0  00000-0 0  9990
2 27509   6.9222  53.5812 0001653 203.6598   2.5258  1.00265355 66436
DMSP 5D-3 F16 (USA 172)
1 28054U 03048A   20283.75679736 -.00000016  00000-0  15187-4 0  9993
2 28054  98.9247 262.4879 0006455 259.4775 177.6162 14.13646381875936
NOAA 18
1 28654U 05018A   20283.77260357  .00000054  00000-0  54082-4 0  9993
2 28654  99.0314 341.2014 0013299 268.6169  91.3479 14.12545360793058
METEOSAT-9 (MSG-2)
1 28912U 05049B   20283.76212532  .00000021  00000-0  00000-0 0  9996
2 28912   4.6634  69.6282 0000374  58.9911 167.9307  1.00275187 54213
FORMOSAT-3 FM6
1 29047U 06011A   20283.60088637  .00000097  00000-0  54114-4 0  9998
2 29047  71.9779 237.0036 0051891 226.7290 132.9512 14.28750892757623
FORMOSAT-3 FM1
1 29048U 06011B   20283.76236220  .00000061  00000-0  40498-4 0  9990
2 29048  71.9656 147.4558 0043841 185.2260 174.8425 14.28720837760137
FORMOSAT-3 FM5
1 29049U 06011C   20283.54696439  .00000030  00000-0  28231-4 0  9996
2 29049  72.0204 320.1913 0036103 212.0679 147.8262 14.28800276755892
FORMOSAT-3 FM3
1 29050U 06011D   20283.64840145  .00000160  00000-0  43898-4 0  9994
2 29050  72.0140  94.4039 0048204 118.1118 242.4919 14.58954962772987
FORMOSAT-3 FM4
1 29051U 06011E   20283.54464133  .00000113  00000-0  59505-4 0  9993
2 29051  72.0053 222.0286 0066205  87.5273 273.3441 14.28834151758482
FORMOSAT-3 FM2
1 29052U 06011F   20283.46584057  .00000058  00000-0  38783-4 0  9996
2 29052  72.0329 296.7367 0039739 171.4097 188.7729 14.28939875755985
EWS-G1 (GOES 13)
1 29155U 06018A   20283.79285635  .00000037  00000-0  00000-0 0  9997
2 29155   0.1323 126.2166 0008893  86.1439 153.3911  1.00274645 22541
METOP-A
1 29499U 06044A   20283.76345753 -.00000009  00000-0  15043-4 0  9999
2 29499  98.5102 326.5650 0000674  75.5977  69.9668 14.21491330724942
DMSP 5D-3 F17 (USA 191)
1 29522U 06050A   20283.76303308  .00000012  00000-0  29220-4 0  9998
2 29522  98.7989 298.4286 0009339 206.9242 153.1447 14.14019549718863
FENGYUN 3A
1 32958U 08026A   20283.68247206  .00000012  00000-0  25809-4 0  9994
2 32958  98.4186 263.5642 0009019  13.5912 346.5506 14.18635011640912
FENGYUN 2E
1 33463U 08066A   20283.92340968 -.00000201  00000-0  00000-0 0  9999
2 33463   4.5767  68.1487 0003202 302.6093  67.2143  1.00277313 43277
NOAA 19
1 33591U 09005A   20283.78475953 -.00000014  00000-0  18014-4 0  9992
2 33591  99.1970 292.1138 0014874 114.0365 246.2364 14.12434233601278
GOES 14
1 35491U 09033A   20283.55572441 -.00000093  00000-0  00000-0 0  9998
2 35491   0.3262 269.1605 0013552 307.5541 257.6310  1.00272906 41294
METEOR-M 1
1 35865U 09049A   20283.69828237  .00000010  00000-0  23089-4 0  9996
2 35865  98.4503 265.9407 0001738 189.9780 170.1364 14.22251452574019
DMSP 5D-3 F18 (USA 210)
1 35951U 09057A   20283.73042047  .00000055  00000-0  51980-4 0  9993
2 35951  98.6552 269.8296 0011994  46.3697 313.8468 14.13303745339820
GOES 15
1 36411U 10008A   20283.64927597  .00000056  00000-0  00000-0 0  9999
2 36411   0.1486 102.5177 0001340 328.5417  53.0007  1.00273102 38852
COMS 1
1 36744U 10032A   20283.78698757 -.00000344  00000-0  00000-0 0  9994
2 36744   0.0259 117.8099 0000937  96.0380 216.5086  1.00273277 30260
FENGYUN 3B
1 37214U 10059A   20282.97423815  .00000002  00000-0  24342-4 0  9996
2 37214  99.0576 266.5216 0016449 308.7990  51.1713 14.15959843513740
SUOMI NPP
1 37849U 11061A   20283.79742144  .00000020  00000-0  30187-4 0  9998
2 37849  98.7082 220.1585 0000703  67.3958 345.1105 14.19556306463853
FENGYUN 2F
1 38049U 12002A   20283.85555497 -.00000357  00000-0  00000-0 0  9998
2 38049   2.3235  83.1580 0001568   6.6057 349.3654  1.00278209 32064
METEOSAT-10 (MSG-3)
1 38552U 12035B   20283.76325939  .00000060  00000-0  00000-0 0  9999
2 38552   1.3110 347.4829 0001094 237.9950  77.4147  1.00269034 30038
METOP-B
1 38771U 12049A   20283.52625242 -.00000012  00000-0  14431-4 0  9996
2 38771  98.7173 341.0903 0002115  59.7281  48.0000 14.21483102418229
FENGYUN 3C
1 39260U 13052A   20283.75699296 -.00000000  00000-0  21126-4 0  9996
2 39260  98.5382 329.4731 0009979 245.7126 114.3003 14.15846818364794
METEOR-M 2
1 40069U 14037A   20283.77927395 -.00000022  00000-0  94710-5 0  9999
2 40069  98.4929 316.9374 0004908 321.2866  38.7953 14.20675894324442
HIMAWARI-8
1 40267U 14060A   20283.47202045 -.00000274  00000-0  00000-0 0  9993
2 40267   0.0244 180.8261 0000680  50.8613  97.4548  1.00274840 22034
FENGYUN 2G
1 40367U 14090A   20283.85302513 -.00000298  00000-0  00000+0 0  9995
2 40367   2.3506  93.0278 0001917 304.9847  27.3616  1.00264883 21213
METEOSAT-11 (MSG-4)
1 40732U 15034A   20283.33069409 -.00000004  00000-0  00000-0 0  9993
2 40732   0.5738 269.6270 0002191 258.8092 329.0027  1.00265997 19204
ELEKTRO-L 2
1 41105U 15074A   20283.90213892 -.00000114  00000-0  00000-0 0  9994
2 41105   1.4685  95.7410 0003045 107.2332 126.3432  1.00271714 17690
HIMAWARI-9
1 41836U 16064A   20283.47202045 -.00000274  00000-0  00000-0 0  9992
2 41836   0.0138 150.1425 0000401  82.0159  97.1225  1.00272365 14472
GOES 16
1 41866U 16071A   20283.53104948 -.00000247  00000-0  00000-0 0  9993
2 41866   0.0120 190.7086 0001345  71.6597 232.2005  1.00267618 14290
FENGYUN 4A
1 41882U 16077A   20283.96716847 -.00000331  00000-0  00000-0 0  9995
2 41882   0.2079 284.4191 0003706 143.6169  43.8771  1.00272417 14164
CYGFM05
1 41884U 16078A   20283.11854158  .00000350  00000-0  20185-4 0  9993
2 41884  34.9565  73.8629 0016253 337.8993  22.1016 15.14701046211356
CYGFM04
1 41885U 16078B   20283.11619036  .00000374  00000-0  21147-4 0  9993
2 41885  34.9499  66.4571 0014491 348.5005  11.5374 15.15217156211424
CYGFM02
1 41886U 16078C   20283.10910051  .00000370  00000-0  20973-4 0  9996
2 41886  34.9590  68.3121 0015281 344.4732  15.5509 15.15213915211411
CYGFM01
1 41887U 16078D   20282.83758814  .00000340  00000-0  19746-4 0  9996
2 41887  34.9531  76.9200 0016727 336.0358  23.9574 15.14512490211297
CYGFM08
1 41888U 16078E   20283.12768365  .00000363  00000-0  20738-4 0  9990
2 41888  34.9503  70.4231 0015776 345.8527  14.1741 15.14929624211377
CYGFM06
1 41889U 16078F   20283.08840933  .00000356  00000-0  20239-4 0  9996
2 41889  34.9584  67.1322 0014244 343.9914  16.0346 15.15210515211419
CYGFM07
1 41890U 16078G   20282.80335661  .00000371  00000-0  20997-4 0  9992
2 41890  34.9522  67.9456 0013975 344.6838  15.3449 15.15208352211379
CYGFM03
1 41891U 16078H   20282.40378630  .00000391  00000-0  22074-4 0  9992
2 41891  34.9554  70.7089 0013541 339.6753  20.3419 15.15201282211310
FENGYUN 3D
1 43010U 17072A   20283.81874106 -.00000021  00000-0  10805-4 0  9997
2 43010  98.7581 221.8831 0002417  93.3538 266.7917 14.19749749150423
NOAA 20
1 43013U 17073A   20283.53992274  .00000001  00000-0  21129-4 0  9995
2 43013  98.7247 219.7502 0001268  72.6701 287.4614 14.19538077149849
GOES 17
1 43226U 18022A   20283.51874920  .00000098  00000-0  00000-0 0  9998
2 43226   0.0496 292.7153 0000445 312.0584 183.3953  1.00272755  9586
FENGYUN 2H
1 43491U 18050A   20283.92340968 -.00000128  00000-0  00000-0 0  9993
2 43491   0.3929 268.5157 0003327 242.7068 279.3594  1.00271076  8690
METOP-C
1 43689U 18087A   20283.54248475 -.00000052  00000-0 -38552-5 0  9995
2 43689  98.7243 341.4165 0002951  43.6855 316.4555 14.21477646 99804
GEO-KOMPSAT-2A
1 43823U 18100A   20283.56282257 -.00000343  00000-0  00000+0 0  9992
2 43823   0.0363  33.6217 0001179 106.5195 209.3980  1.00273983  6843
IOD-1 GEMS
1 44385U 98067QK  20283.25690727  .00024101  00000-0  25109-3 0  9995
2 44385  51.6378 118.5558 0000983  44.4025 315.7049 15.64412984 72280
METEOR-M2 2
1 44387U 19038A   20283.78319200 -.00000036  00000-0  30611-5 0  9998
2 44387  98.6323 241.6231 0000222 309.6163  50.5000 14.23681354 65808
